{
    "links": {
        "self": "http://www.neowsapp.com/rest/v1/neo/3740831?api_key=iIulBulltgU6a56xZRHN4H3l9WmuAYTsLGpBGhQ2"
    },
    "id": "3740831",
    "neo_reference_id": "3740831",
    "name": "(2015 XW384)",
    "designation": "2015 XW384",
    "nasa_jpl_url": "http://ssd.jpl.nasa.gov/sbdb.cgi?sstr=3740831",
    "absolute_magnitude_h": 25.8,
    "estimated_diameter": {
        "kilometers": {
            "estimated_diameter_min": 0.0183888672,
            "estimated_diameter_max": 0.0411187571
        },
        "meters": {
            "estimated_diameter_min": 18.388867207,
            "estimated_diameter_max": 41.1187571041
        },
        "miles": {
            "estimated_diameter_min": 0.0114263088,
            "estimated_diameter_max": 0.0255500032
        },
        "feet": {
            "estimated_diameter_min": 60.3309310875,
            "estimated_diameter_max": 134.9040630575
        }
    },
    "is_potentially_hazardous_asteroid": false,
    "close_approach_data": [
        {
            "close_approach_date": "2015-12-03",
            "close_approach_date_full": "2015-Dec-03 08:42",
            "epoch_date_close_approach": 1449132120000,
            "relative_velocity": {
                "kilometers_per_second": "12.489402403",
                "kilometers_per_hour": "44961.8486506452",
                "miles_per_hour": "27937.5442351745"
            },
            "miss_distance": {
                "astronomical": "0.0238851769",
                "lunar": "9.2913338141",
                "kilometers": "3573171.588813203",
                "miles": "2220265.8701920814"
            },
            "orbiting_body": "Earth"
        }
    ],
    "orbital_data": {
        "orbit_id": "3",
        "orbit_determination_date": "2017-04-06 08:29:46",
        "first_observation_date": "2015-12-14",
        "last_observation_date": "2015-12-15",
        "data_arc_in_days": 1,
        "observations_used": 7,
        "orbit_uncertainty": "9",
        "minimum_orbit_intersection": ".0113759",
        "jupiter_tisserand_invariant": "4.791",
        "epoch_osculation": "2457371.5",
        "eccentricity": ".443018214014722",
        "semi_major_axis": "1.338878271102244",
        "inclination": "5.653815139974914",
        "ascending_node_longitude": "258.5526248260014",
        "orbital_period": "565.8613963544468",
        "perihelion_distance": ".7457308106554089",
        "perihelion_argument": "95.05687757893327",
        "aphelion_distance": "1.932025731549079",
        "perihelion_time": "2457307.744232312465",
        "mean_anomaly": "40.56130443847379",
        "mean_motion": ".6361981968010089",
        "equinox": "J2000",
        "orbit_class": {
            "orbit_class_type": "APO",
            "orbit_class_description": "Near-Earth asteroid orbits which cross the Earth’s orbit similar to that of 1862 Apollo",
            "orbit_class_range": "a (semi-major axis) > 1.0 AU; q (perihelion) < 1.017 AU"
        }
    },
    "is_sentry_object": false
}